OBJECT B                
1 51825U 22019B   24110.93341604  .00032116  00000+0  14758-2 0  9992
2 51825  97.4329 183.0450 0016341  86.4186 273.8917 15.20187554118371
